CAS-2T & KS-1Q          
1 41847U 16066G   20322.41576126  .00000134  00000-0  29682-4 0  9993
2 41847  98.6344  14.3205 0366373 132.9157 230.3401 14.38112092211403
NAYIF-1 (EO-88)         
1 42017U 17008BX  20322.46001744  .00002398  00000-0  93183-4 0  9995
2 42017  97.3439  27.6904 0007376 131.4601 228.7273 15.27000439208897
ZHUHAI-1 02 (CAS-4B)    
1 42759U 17034B   20322.58124601  .00000705  00000-0  56048-4 0  9997
2 42759  43.0188 265.6586 0011414 277.6488 251.7141 15.09953048189119
ZHUHAI-1 01 (CAS-4A)    
1 42761U 17034D   20322.58361140  .00000649  00000-0  52588-4 0  9993
2 42761  43.0188 264.8436 0011817 279.4098 249.5801 15.10032448189113
MAX VALIER SAT          
1 42778U 17036P   20322.38767298  .00001390  00000-0  62109-4 0  9999
2 42778  97.2863  11.6544 0011624 196.3987 163.6875 15.22923285189006
RADFXSAT (FOX-1B)       
1 43017U 17073E   20322.28650692  .00000919  00000-0  77256-4 0  9990
2 43017  97.7158 228.5692 0254850 272.3495  84.8562 14.79147625161753
FOX-1D (AO-92)          
1 43137U 18004AC  20322.18012271  .00001635  00000-0  69485-4 0  9993
2 43137  97.4316  32.2076 0007764 232.6772 127.3758 15.24461228158319
DIWATA-2B               
1 43678U 18084H   20322.55350392 -.00000008  00000-0  49329-5 0  9991
2 43678  97.9014  81.1074 0010769  37.6723 322.5284 14.91668514111848
ES'HAIL 2               
1 43700U 18090A   20322.42340828  .00000143  00000-0  00000-0 0  9990
2 43700   0.0129 283.1213 0001487 329.2021 342.8601  1.00272041  7241
FOX-1CLIFF (AO-95)      
1 43770U 18099N   20322.44264486  .00000052  00000-0  99745-5 0  9991
2 43770  97.6915  31.0401 0015610  50.2246 310.0346 14.95096385106779
ITASAT 1                
1 43786U 18099AE  20322.47248126  .00000680  00000-0  66597-4 0  9999
2 43786  97.6931  31.5982 0016045  44.1913 316.0586 14.95419392106802
JY1SAT (JO-97)          
1 43803U 18099AX  20322.46801249  .00000672  00000-0  65502-4 0  9995
2 43803  97.6890  31.3787 0015957  44.4423 315.8076 14.95617152106802
PSAT2 (NO-104)          
1 44354U 19036R   20321.72836606  .00020598  00000-0  29420-3 0  9999
2 44354  28.5286  98.4901 0351964 140.5953 222.0799 15.06664108 76774
BRICSAT2 (NO-103)       
1 44355U 19036S   20321.65732911  .00040651  00000-0  53414-3 0  9998
2 44355  28.5295  80.2576 0318519 170.1650 190.5361 15.15190552 76955
JAISAT-1                
1 44419U 19038F   20322.47095768  .00001519  00000-0  89210-4 0  9998
2 44419  97.5595 282.4607 0020554 327.4134  32.5827 15.13079945 75736
DUCHIFAT-3              
1 44854U 19089C   20321.95506659  .00000641  00000-0  57982-4 0  9991
2 44854  36.9675 277.0254 0008707 223.4936 136.5077 14.99197945 51194
RS-44 & BREEZE-KM R/B   
1 44909U 19096E   20322.28319803  .00000021  00000-0  45343-4 0  9990
2 44909  82.5220 253.7514 0216442 229.0363 129.1834 12.79708020 41737
ORBITAL FACTORY 2 (OF-2)
1 45113U 19071C   20322.35481370  .00003500  00000-0  11574-3 0  9991
2 45113  51.6429 344.6101 0012093 248.0543 111.9154 15.34055142 44597
HUSKYSAT-1              
1 45119U 19071J   20322.31372261  .00002165  00000-0  75609-4 0  9997
2 45119  51.6429 344.3356 0011367 244.4460 115.5347 15.34220737 44580
SALSAT                  
1 46495U 20068K   20322.53688531  .00000204  00000-0  19576-4 0  9990
2 46495  97.6735 255.5660 0019073  70.2341 290.0952 15.03255833  7495
